KUZGTU 1 (RS47S)        
1 57217U 23091AV  26165.22153468  .00012040  00000+0  41865-3 0  9991
2 57217  97.5071 229.6711 0012370 107.1126 253.1470 15.29802531163921
SONATE-2                
1 59112U 24043Q   26164.99241653  .00038437  00000+0  50299-3 0  9991
2 59112  97.5521 315.1932 0006914 205.9654 154.1256 15.58498683127397
MESAT1                  
1 60209U 24125G   26165.16134300  .00055738  00000+0  61397-3 0  9995
2 60209  97.2291  22.5760 0009220 215.2038 144.8612 15.62910376109090
OOV-CUBE (TUBSAT-30)    
1 60240U 24128F   26164.92812935  .00002141  00000+0  17165-3 0  9997
2 60240  61.9948 236.9373 0045036 132.9755 227.5126 15.02762484105622
COLIBRI-S (RS67S)       
1 61746U 24199M   26165.28162888  .00021031  00000+0  40875-3 0  9995
2 61746  97.3000  39.1102 0006244 292.9085  67.1506 15.47618457136960
HORS 3 (RS81S)          
1 61753U 24199U   26165.25782591  .00036802  00000+0  55283-3 0  9990
2 61753  97.2985  41.0412 0003729 296.2886  63.7985 15.54790687137100
HORS 4 (RS82S)          
1 61754U 24199V   26165.29135949  .00045908  00000+0  57943-3 0  9996
2 61754  97.2931  42.2583 0003019 277.1803  82.9110 15.59443649137193
ARCTICSAT 1 (RS74S)     
1 61762U 24199AD  26165.09943774  .09062228  24925-5  82634-3 0  9992
2 61762  97.2739  49.3340 0010760 237.4855 122.5405 16.38817654137630
SIT-2086                
1 61764U 24199AF  26165.29694765  .00034367  00000+0  55282-3 0  9994
2 61764  97.2941  41.5678 0004357 266.3733  93.7022 15.52907720133983
HYPERVIEW 1G (RS66S)    
1 61772U 24199AP  26165.26794521  .00136151  00000+0  90107-3 0  9990
2 61772  97.2882  44.8415 0003086 234.0403 126.0576 15.75138405134217
ALTAIR (RS65S)          
1 61779U 24199AW  26165.24742701  .00010118  00000+0  28133-3 0  9992
2 61779  97.3036  34.6183 0011369 323.1074  36.9388 15.36980822136668
ASRTU-1 (AO-123)        
1 61781U 24199AY  26165.29791694  .00007519  00000+0  21879-3 0  9996
2 61781  97.3006  33.9954 0012534 325.5504  34.4926 15.35639171133480
SAMSAT-IONOSPHERE (RS7*)
1 61784U 24199BB  26165.29677651  .00042916  00000+0  58479-3 0  9991
2 61784  97.2953  41.1173 0005856 291.8980  68.1653 15.57398510137117
RTU MIREA 1 (RS51S)     
1 61785U 24199BC  26165.26343934  .00056700  00000+0  67815-3 0  9993
2 61785  97.2942  41.8998 0005468 283.6945  76.3703 15.60803299134019
TEVEL2-4                
1 63213U 25052D   26165.24787499  .00018966  00000+0  56859-3 0  9994
2 63213  97.3916  61.6351 0004816 109.6731 250.5032 15.34521114 69661
TEVEL2-5                
1 63214U 25052E   26165.13761332  .00019767  00000+0  59574-3 0  9998
2 63214  97.3913  61.4736 0004713 110.5987 249.5761 15.34345297 69645
TEVEL2-6                
1 63215U 25052F   26165.28031027  .00018628  00000+0  56220-3 0  9996
2 63215  97.3919  61.6008 0004643 110.4903 249.6839 15.34313968 69664
TEVEL2-1                
1 63217U 25052H   26165.24308869  .00018167  00000+0  55762-3 0  9993
2 63217  97.3887  61.1915 0004629 119.5587 240.6117 15.33782772 69644
TEVEL2-3                
1 63218U 25052J   26165.23783726  .00017827  00000+0  54634-3 0  9991
2 63218  97.3893  61.2078 0004602 119.3991 240.7711 15.33837086 69641
TEVEL2-2                
1 63219U 25052K   26165.24341888  .00018234  00000+0  55953-3 0  9990
2 63219  97.3886  61.1944 0004638 119.8563 240.3141 15.33790939 69642
TEVEL2-9                
1 63237U 25052AD  26165.28236824  .00016318  00000+0  53265-3 0  9992
2 63237  97.3950  60.6144 0007556 138.8374 221.3439 15.31820596 69586
TEVEL2-7                
1 63238U 25052AE  26165.25738366  .00015403  00000+0  50763-3 0  9992
2 63238  97.3957  60.5072 0007596 139.3804 220.8005 15.31524555 69579
TEVEL2-8                
1 63239U 25052AF  26165.20026774  .00015772  00000+0  51998-3 0  9991
2 63239  97.3953  60.4271 0007654 140.3023 219.8780 15.31507212 69564
INNOSAT 16 (RS92S7)     
1 64878U 25155C   26165.24697255  .00005668  00000+0  22686-3 0  9992
2 64878  97.4558 132.3841 0010202 185.6746 174.4378 15.25429064 80221
GEOSCAN 6 (RS92S6)      
1 64879U 25155D   26165.23874147  .00009598  00000+0  33173-3 0  9998
2 64879  97.4550 133.7792 0007977 171.8879 188.2492 15.30102391 80310
GEOSCAN 1 (RS92S1)      
1 64880U 25155E   26165.24233273  .00010458  00000+0  35467-3 0  9995
2 64880  97.4546 133.9282 0007914 171.6391 188.4983 15.30694073 80322
239ALFEROV (RS61S)      
1 64881U 25155F   26165.28144762  .00013733  00000+0  43440-3 0  9993
2 64881  97.4547 134.5192 0007642 168.2553 191.8869 15.32869491 80366
GEOSCAN 2 (RS92S2)      
1 64890U 25155Q   26165.23653840  .00010290  00000+0  34614-3 0  9998
2 64890  97.4545 134.0737 0007756 158.3222 201.8348 15.30964635 80338
GEOSCAN 5 (RS92S5)      
1 64891U 25155R   26165.27107453  .00013983  00000+0  43800-3 0  9996
2 64891  97.4539 134.6451 0006342 171.6853 188.4496 15.33187955 80372
GEOSCAN 4 (RS92S4)      
1 64892U 25155S   26165.25555866  .00014205  00000+0  44278-3 0  9998
2 64892  97.4543 134.6771 0006416 171.5814 188.5537 15.33340189 80378
