OBJECT_NAME,OBJECT_ID,EPOCH,MEAN_MOTION,ECCENTRICITY,INCLINATION,RA_OF_ASC_NODE,ARG_OF_PERICENTER,MEAN_ANOMALY,EPHEMERIS_TYPE,CLASSIFICATION_TYPE,NORAD_CAT_ID,ELEMENT_SET_NO,REV_AT_EPOCH,BSTAR,MEAN_MOTION_DOT,MEAN_MOTION_DDOT
KUZGTU 1 (RS47S),2023-091AV,2026-06-14T05:19:00.596352,15.29802531,.00123709,97.5071,229.6711,107.1126,253.1470,0,U,57217,999,16392,.41864697E-3,.1204E-3,0
SONATE-2,2024-043Q,2026-06-13T23:49:04.788192,15.58498683,.00069146,97.5521,315.1932,205.9654,154.1256,0,U,59112,999,12739,.50299163E-3,.38437E-3,0
MESAT1,2024-125G,2026-06-14T03:52:20.035200,15.62910376,.00092205,97.2291,22.5760,215.2038,144.8612,0,U,60209,999,10909,.61397129E-3,.55738E-3,0
OOV-CUBE (TUBSAT-30),2024-128F,2026-06-13T22:16:30.375840,15.02762484,.00450363,61.9948,236.9373,132.9755,227.5126,0,U,60240,999,10562,.17165252E-3,.2141E-4,0
COLIBRI-S (RS67S),2024-199M,2026-06-14T06:45:32.735232,15.47618457,.00062445,97.3000,39.1102,292.9085,67.1506,0,U,61746,999,13696,.40874823E-3,.21031E-3,0
HORS 3 (RS81S),2024-199U,2026-06-14T06:11:16.158624,15.54790687,.00037293,97.2985,41.0412,296.2886,63.7985,0,U,61753,999,13710,.55282607E-3,.36802E-3,0
HORS 4 (RS82S),2024-199V,2026-06-14T06:59:33.459936,15.59443649,.00030195,97.2931,42.2583,277.1803,82.9110,0,U,61754,999,13719,.57943464E-3,.45908E-3,0
ARCTICSAT 1 (RS74S),2024-199AD,2026-06-14T02:23:11.420736,16.38817654,.00107607,97.2739,49.3340,237.4855,122.5405,0,U,61762,999,13763,.82633616E-3,.9062228E-1,.249247E-5
SIT-2086,2024-199AF,2026-06-14T07:07:36.276960,15.52907720,.00043572,97.2941,41.5678,266.3733,93.7022,0,U,61764,999,13398,.55281979E-3,.34367E-3,0
HYPERVIEW 1G (RS66S),2024-199AP,2026-06-14T06:25:50.466144,15.75138405,.00030867,97.2882,44.8415,234.0403,126.0576,0,U,61772,999,13421,.90106552E-3,.136151E-2,0
ALTAIR (RS65S),2024-199AW,2026-06-14T05:56:17.693664,15.36980822,.00113691,97.3036,34.6183,323.1074,36.9388,0,U,61779,999,13666,.28133105E-3,.10118E-3,0
ASRTU-1 (AO-123),2024-199AY,2026-06-14T07:09:00.023616,15.35639171,.0012534,97.3006,33.9954,325.5504,34.4926,0,U,61781,999,13348,.21879038E-3,.7519E-4,0
SAMSAT-IONOSPHERE (RS75S),2024-199BB,2026-06-14T07:07:21.490464,15.57398510,.00058566,97.2953,41.1173,291.8980,68.1653,0,U,61784,999,13711,.5847881E-3,.42916E-3,0
RTU MIREA 1 (RS51S),2024-199BC,2026-06-14T06:19:21.158976,15.60803299,.00054682,97.2942,41.8998,283.6945,76.3703,0,U,61785,999,13401,.67815241E-3,.567E-3,0
TEVEL2-4,2025-052D,2026-06-14T05:56:56.399136,15.34521114,.00048169,97.3916,61.6351,109.6731,250.5032,0,U,63213,999,6966,.56859002E-3,.18966E-3,0
TEVEL2-5,2025-052E,2026-06-14T03:18:09.790848,15.34345297,.0004713,97.3913,61.4736,110.5987,249.5761,0,U,63214,999,6964,.59573677E-3,.19767E-3,0
TEVEL2-6,2025-052F,2026-06-14T06:43:38.807328,15.34313968,.00046437,97.3919,61.6008,110.4903,249.6839,0,U,63215,999,6966,.56220459E-3,.18628E-3,0
TEVEL2-1,2025-052H,2026-06-14T05:50:02.862816,15.33782772,.00046293,97.3887,61.1915,119.5587,240.6117,0,U,63217,999,6964,.55761785E-3,.18167E-3,0
TEVEL2-3,2025-052J,2026-06-14T05:42:29.139264,15.33837086,.00046023,97.3893,61.2078,119.3991,240.7711,0,U,63218,999,6964,.54634381E-3,.17827E-3,0
TEVEL2-2,2025-052K,2026-06-14T05:50:31.391232,15.33790939,.00046386,97.3886,61.1944,119.8563,240.3141,0,U,63219,999,6964,.55952603E-3,.18234E-3,0
TEVEL2-9,2025-052AD,2026-06-14T06:46:36.615936,15.31820596,.00075567,97.3950,60.6144,138.8374,221.3439,0,U,63237,999,6958,.53265067E-3,.16318E-3,0
TEVEL2-7,2025-052AE,2026-06-14T06:10:37.948224,15.31524555,.0007596,97.3957,60.5072,139.3804,220.8005,0,U,63238,999,6957,.50762515E-3,.15403E-3,0
TEVEL2-8,2025-052AF,2026-06-14T04:48:23.132736,15.31507212,.00076546,97.3953,60.4271,140.3023,219.8780,0,U,63239,999,6956,.51997936E-3,.15772E-3,0
INNOSAT 16 (RS92S7),2025-155C,2026-06-14T05:55:38.428320,15.25429064,.00102024,97.4558,132.3841,185.6746,174.4378,0,U,64878,999,8022,.22685875E-3,.5668E-4,0
GEOSCAN 6 (RS92S6),2025-155D,2026-06-14T05:43:47.263008,15.30102391,.00079772,97.4550,133.7792,171.8879,188.2492,0,U,64879,999,8031,.33173353E-3,.9598E-4,0
GEOSCAN 1 (RS92S1),2025-155E,2026-06-14T05:48:57.547872,15.30694073,.00079148,97.4546,133.9282,171.6391,188.4983,0,U,64880,999,8032,.35466866E-3,.10458E-3,0
239ALFEROV (RS61S),2025-155F,2026-06-14T06:45:17.074368,15.32869491,.0007642,97.4547,134.5192,168.2553,191.8869,0,U,64881,999,8036,.43440128E-3,.13733E-3,0
GEOSCAN 2 (RS92S2),2025-155Q,2026-06-14T05:40:36.917760,15.30964635,.00077566,97.4545,134.0737,158.3222,201.8348,0,U,64890,999,8033,.34613909E-3,.1029E-3,0
GEOSCAN 5 (RS92S5),2025-155R,2026-06-14T06:30:20.839392,15.33187955,.00063426,97.4539,134.6451,171.6853,188.4496,0,U,64891,999,8037,.43799521E-3,.13983E-3,0
GEOSCAN 4 (RS92S4),2025-155S,2026-06-14T06:08:00.268224,15.33340189,.00064162,97.4543,134.6771,171.5814,188.5537,0,U,64892,999,8037,.44277585E-3,.14205E-3,0
